ONEWEB-0685             
1 54679U 22166AP  25347.25753372  .00000067  00000+0  13183-3 0  9994
2 54679  87.9219 281.0744 0001764  88.1557 271.9779 13.21834942146850
ONEWEB-0712             
1 54680U 22166AQ  25347.24744962  .00000050  00000+0  96013-4 0  9996
2 54680  87.9048 265.7949 0002288  74.2471 285.8913 13.16595544147593
ONEWEB-0714             
1 54681U 22166AR  25347.26364295  .00000067  00000+0  13010-3 0  9999
2 54681  87.9218 281.0674 0001954  80.9861 279.1494 13.21824174146976
ONEWEB-0532             
1 55140U 23004A   25347.21753938  .00000060  00000+0  12024-3 0  9990
2 55140  87.9120  42.8377 0001544 113.4316 246.6978 13.17647905143090
ONEWEB-0533             
1 55141U 23004B   25347.13379161 -.00000141  00000+0 -42660-3 0  9995
2 55141  87.8945  27.6234 0001919 101.2867 258.8477 13.12444989143653
ONEWEB-0541             
1 55142U 23004C   25347.17075313 -.00000374  00000+0 -10923-2 0  9996
2 55142  87.8869  58.0906 0001599 103.4647 256.6659 13.11419210141561
ONEWEB-0543             
1 55143U 23004D   25347.11464817  .00000101  00000+0  22420-3 0  9994
2 55143  87.9165  12.4505 0002048  90.3920 269.7447 13.18686007145177
ONEWEB-0544             
1 55144U 23004E   25347.33567174 -.00000105  00000+0 -29897-3 0  9990
2 55144  87.9168  12.3972 0001699  85.8728 274.2598 13.18684080145205
ONEWEB-0560             
1 55145U 23004F   25347.32908326  .00000021  00000+0  21038-4 0  9993
2 55145  87.9175  12.3853 0001792  86.0932 274.0405 13.18686022145210
ONEWEB-0565             
1 55146U 23004G   25347.32248259  .00000077  00000+0  16345-3 0  9991
2 55146  87.9164  12.4326 0001337  84.1945 275.9340 13.18686798145200
ONEWEB-0567             
1 55147U 23004H   25347.31588522 -.00000001  00000+0 -35502-4 0  9997
2 55147  87.9171  12.4007 0001519  81.8170 278.3134 13.18686503145203
ONEWEB-0569             
1 55148U 23004J   25347.28714551 -.00000305  00000+0 -86887-3 0  9995
2 55148  87.8989 357.1565 0001881  61.1293 299.0025 13.13470760145779
ONEWEB-0570             
1 55149U 23004K   25347.30597239 -.00000026  00000+0 -99444-4 0  9995
2 55149  87.9172  12.4025 0001359 105.6129 254.5153 13.18684212145197
ONEWEB-0571             
1 55150U 23004L   25347.14762105  .00000054  00000+0  10391-3 0  9997
2 55150  87.9169  12.4335 0001229  49.9823 310.1417 13.18684117145181
ONEWEB-0572             
1 55151U 23004M   25347.17197734 -.00000056  00000+0 -17652-3 0  9992
2 55151  87.9119  42.8563 0001579  97.6729 262.4582 13.17648194142981
ONEWEB-0573             
1 55152U 23004N   25347.06513970  .00000123  00000+0  28003-3 0  9990
2 55152  87.9162  12.4551 0000963  86.8493 273.2750 13.18684555145166
ONEWEB-0588             
1 55153U 23004P   25347.13444191  .00000048  00000+0  88693-4 0  9995
2 55153  87.9174  12.4363 0001326 100.2486 259.8795 13.18685775145173
