[{"OBJECT_NAME":"ONEWEB-0685","OBJECT_ID":"2022-166AP","EPOCH":"2025-12-13T06:10:50.913408","MEAN_MOTION":13.21834942,"ECCENTRICITY":0.00017647,"INCLINATION":87.9219,"RA_OF_ASC_NODE":281.0744,"ARG_OF_PERICENTER":88.1557,"MEAN_ANOMALY":271.9779,"EPHEMERIS_TYPE":0,"CLASSIFICATION_TYPE":"U","NORAD_CAT_ID":54679,"ELEMENT_SET_NO":999,"REV_AT_EPOCH":14685,"BSTAR":0.00013182756,"MEAN_MOTION_DOT":6.7e-7,"MEAN_MOTION_DDOT":0},{"OBJECT_NAME":"ONEWEB-0712","OBJECT_ID":"2022-166AQ","EPOCH":"2025-12-13T05:56:19.647168","MEAN_MOTION":13.16595544,"ECCENTRICITY":0.00022888,"INCLINATION":87.9048,"RA_OF_ASC_NODE":265.7949,"ARG_OF_PERICENTER":74.2471,"MEAN_ANOMALY":285.8913,"EPHEMERIS_TYPE":0,"CLASSIFICATION_TYPE":"U","NORAD_CAT_ID":54680,"ELEMENT_SET_NO":999,"REV_AT_EPOCH":14759,"BSTAR":9.601327e-5,"MEAN_MOTION_DOT":5.0e-7,"MEAN_MOTION_DDOT":0},{"OBJECT_NAME":"ONEWEB-0714","OBJECT_ID":"2022-166AR","EPOCH":"2025-12-13T06:19:38.750880","MEAN_MOTION":13.21824174,"ECCENTRICITY":0.00019541,"INCLINATION":87.9218,"RA_OF_ASC_NODE":281.0674,"ARG_OF_PERICENTER":80.9861,"MEAN_ANOMALY":279.1494,"EPHEMERIS_TYPE":0,"CLASSIFICATION_TYPE":"U","NORAD_CAT_ID":54681,"ELEMENT_SET_NO":999,"REV_AT_EPOCH":14697,"BSTAR":0.0001300954,"MEAN_MOTION_DOT":6.7e-7,"MEAN_MOTION_DDOT":0},{"OBJECT_NAME":"ONEWEB-0532","OBJECT_ID":"2023-004A","EPOCH":"2025-12-13T05:13:15.402432","MEAN_MOTION":13.17647905,"ECCENTRICITY":0.00015449,"INCLINATION":87.912,"RA_OF_ASC_NODE":42.8377,"ARG_OF_PERICENTER":113.4316,"MEAN_ANOMALY":246.6978,"EPHEMERIS_TYPE":0,"CLASSIFICATION_TYPE":"U","NORAD_CAT_ID":55140,"ELEMENT_SET_NO":999,"REV_AT_EPOCH":14309,"BSTAR":0.00012023561,"MEAN_MOTION_DOT":6.0e-7,"MEAN_MOTION_DDOT":0},{"OBJECT_NAME":"ONEWEB-0533","OBJECT_ID":"2023-004B","EPOCH":"2025-12-13T03:12:39.595104","MEAN_MOTION":13.12444989,"ECCENTRICITY":0.00019194,"INCLINATION":87.8945,"RA_OF_ASC_NODE":27.6234,"ARG_OF_PERICENTER":101.2867,"MEAN_ANOMALY":258.8477,"EPHEMERIS_TYPE":0,"CLASSIFICATION_TYPE":"U","NORAD_CAT_ID":55141,"ELEMENT_SET_NO":999,"REV_AT_EPOCH":14365,"BSTAR":-0.00042659777,"MEAN_MOTION_DOT":-1.41e-6,"MEAN_MOTION_DDOT":0},{"OBJECT_NAME":"ONEWEB-0541","OBJECT_ID":"2023-004C","EPOCH":"2025-12-13T04:05:53.070432","MEAN_MOTION":13.1141921,"ECCENTRICITY":0.00015991,"INCLINATION":87.8869,"RA_OF_ASC_NODE":58.0906,"ARG_OF_PERICENTER":103.4647,"MEAN_ANOMALY":256.6659,"EPHEMERIS_TYPE":0,"CLASSIFICATION_TYPE":"U","NORAD_CAT_ID":55142,"ELEMENT_SET_NO":999,"REV_AT_EPOCH":14156,"BSTAR":-0.001092306,"MEAN_MOTION_DOT":-3.74e-6,"MEAN_MOTION_DDOT":0},{"OBJECT_NAME":"ONEWEB-0543","OBJECT_ID":"2023-004D","EPOCH":"2025-12-13T02:45:05.601888","MEAN_MOTION":13.18686007,"ECCENTRICITY":0.00020485,"INCLINATION":87.9165,"RA_OF_ASC_NODE":12.4505,"ARG_OF_PERICENTER":90.392,"MEAN_ANOMALY":269.7447,"EPHEMERIS_TYPE":0,"CLASSIFICATION_TYPE":"U","NORAD_CAT_ID":55143,"ELEMENT_SET_NO":999,"REV_AT_EPOCH":14517,"BSTAR":0.00022420396,"MEAN_MOTION_DOT":1.01e-6,"MEAN_MOTION_DDOT":0},{"OBJECT_NAME":"ONEWEB-0544","OBJECT_ID":"2023-004E","EPOCH":"2025-12-13T08:03:22.038336","MEAN_MOTION":13.1868408,"ECCENTRICITY":0.00016994,"INCLINATION":87.9168,"RA_OF_ASC_NODE":12.3972,"ARG_OF_PERICENTER":85.8728,"MEAN_ANOMALY":274.2598,"EPHEMERIS_TYPE":0,"CLASSIFICATION_TYPE":"U","NORAD_CAT_ID":55144,"ELEMENT_SET_NO":999,"REV_AT_EPOCH":14520,"BSTAR":-0.00029896734,"MEAN_MOTION_DOT":-1.05e-6,"MEAN_MOTION_DDOT":0},{"OBJECT_NAME":"ONEWEB-0560","OBJECT_ID":"2023-004F","EPOCH":"2025-12-13T07:53:52.793664","MEAN_MOTION":13.18686022,"ECCENTRICITY":0.00017927,"INCLINATION":87.9175,"RA_OF_ASC_NODE":12.3853,"ARG_OF_PERICENTER":86.0932,"MEAN_ANOMALY":274.0405,"EPHEMERIS_TYPE":0,"CLASSIFICATION_TYPE":"U","NORAD_CAT_ID":55145,"ELEMENT_SET_NO":999,"REV_AT_EPOCH":14521,"BSTAR":2.1037566e-5,"MEAN_MOTION_DOT":2.1e-7,"MEAN_MOTION_DDOT":0},{"OBJECT_NAME":"ONEWEB-0565","OBJECT_ID":"2023-004G","EPOCH":"2025-12-13T07:44:22.495776","MEAN_MOTION":13.18686798,"ECCENTRICITY":0.00013371,"INCLINATION":87.9164,"RA_OF_ASC_NODE":12.4326,"ARG_OF_PERICENTER":84.1945,"MEAN_ANOMALY":275.934,"EPHEMERIS_TYPE":0,"CLASSIFICATION_TYPE":"U","NORAD_CAT_ID":55146,"ELEMENT_SET_NO":999,"REV_AT_EPOCH":14520,"BSTAR":0.00016345344,"MEAN_MOTION_DOT":7.7e-7,"MEAN_MOTION_DDOT":0},{"OBJECT_NAME":"ONEWEB-0567","OBJECT_ID":"2023-004H","EPOCH":"2025-12-13T07:34:52.483008","MEAN_MOTION":13.18686503,"ECCENTRICITY":0.0001519,"INCLINATION":87.9171,"RA_OF_ASC_NODE":12.4007,"ARG_OF_PERICENTER":81.817,"MEAN_ANOMALY":278.3134,"EPHEMERIS_TYPE":0,"CLASSIFICATION_TYPE":"U","NORAD_CAT_ID":55147,"ELEMENT_SET_NO":999,"REV_AT_EPOCH":14520,"BSTAR":-3.5502311e-5,"MEAN_MOTION_DOT":-1.0e-8,"MEAN_MOTION_DDOT":0},{"OBJECT_NAME":"ONEWEB-0569","OBJECT_ID":"2023-004J","EPOCH":"2025-12-13T06:53:29.372064","MEAN_MOTION":13.1347076,"ECCENTRICITY":0.00018812,"INCLINATION":87.8989,"RA_OF_ASC_NODE":357.1565,"ARG_OF_PERICENTER":61.1293,"MEAN_ANOMALY":299.0025,"EPHEMERIS_TYPE":0,"CLASSIFICATION_TYPE":"U","NORAD_CAT_ID":55148,"ELEMENT_SET_NO":999,"REV_AT_EPOCH":14577,"BSTAR":-0.00086886598,"MEAN_MOTION_DOT":-3.05e-6,"MEAN_MOTION_DDOT":0},{"OBJECT_NAME":"ONEWEB-0570","OBJECT_ID":"2023-004K","EPOCH":"2025-12-13T07:20:36.014496","MEAN_MOTION":13.18684212,"ECCENTRICITY":0.0001359,"INCLINATION":87.9172,"RA_OF_ASC_NODE":12.4025,"ARG_OF_PERICENTER":105.6129,"MEAN_ANOMALY":254.5153,"EPHEMERIS_TYPE":0,"CLASSIFICATION_TYPE":"U","NORAD_CAT_ID":55149,"ELEMENT_SET_NO":999,"REV_AT_EPOCH":14519,"BSTAR":-9.944438e-5,"MEAN_MOTION_DOT":-2.6e-7,"MEAN_MOTION_DDOT":0},{"OBJECT_NAME":"ONEWEB-0571","OBJECT_ID":"2023-004L","EPOCH":"2025-12-13T03:32:34.458720","MEAN_MOTION":13.18684117,"ECCENTRICITY":0.00012298,"INCLINATION":87.9169,"RA_OF_ASC_NODE":12.4335,"ARG_OF_PERICENTER":49.9823,"MEAN_ANOMALY":310.1417,"EPHEMERIS_TYPE":0,"CLASSIFICATION_TYPE":"U","NORAD_CAT_ID":55150,"ELEMENT_SET_NO":999,"REV_AT_EPOCH":14518,"BSTAR":0.00010390952,"MEAN_MOTION_DOT":5.4e-7,"MEAN_MOTION_DDOT":0},{"OBJECT_NAME":"ONEWEB-0572","OBJECT_ID":"2023-004M","EPOCH":"2025-12-13T04:07:38.842176","MEAN_MOTION":13.17648194,"ECCENTRICITY":0.00015792,"INCLINATION":87.9119,"RA_OF_ASC_NODE":42.8563,"ARG_OF_PERICENTER":97.6729,"MEAN_ANOMALY":262.4582,"EPHEMERIS_TYPE":0,"CLASSIFICATION_TYPE":"U","NORAD_CAT_ID":55151,"ELEMENT_SET_NO":999,"REV_AT_EPOCH":14298,"BSTAR":-0.00017651964,"MEAN_MOTION_DOT":-5.6e-7,"MEAN_MOTION_DDOT":0},{"OBJECT_NAME":"ONEWEB-0573","OBJECT_ID":"2023-004N","EPOCH":"2025-12-13T01:33:48.070080","MEAN_MOTION":13.18684555,"ECCENTRICITY":9.638e-5,"INCLINATION":87.9162,"RA_OF_ASC_NODE":12.4551,"ARG_OF_PERICENTER":86.8493,"MEAN_ANOMALY":273.275,"EPHEMERIS_TYPE":0,"CLASSIFICATION_TYPE":"U","NORAD_CAT_ID":55152,"ELEMENT_SET_NO":999,"REV_AT_EPOCH":14516,"BSTAR":0.00028002635,"MEAN_MOTION_DOT":1.23e-6,"MEAN_MOTION_DDOT":0},{"OBJECT_NAME":"ONEWEB-0588","OBJECT_ID":"2023-004P","EPOCH":"2025-12-13T03:13:35.781024","MEAN_MOTION":13.18685775,"ECCENTRICITY":0.00013263,"INCLINATION":87.9174,"RA_OF_ASC_NODE":12.4363,"ARG_OF_PERICENTER":100.2486,"MEAN_ANOMALY":259.8795,"EPHEMERIS_TYPE":0,"CLASSIFICATION_TYPE":"U","NORAD_CAT_ID":55153,"ELEMENT_SET_NO":999,"REV_AT_EPOCH":14517,"BSTAR":8.8693123e-5,"MEAN_MOTION_DOT":4.8e-7,"MEAN_MOTION_DDOT":0}]
